[{"OBJECT_NAME":"ONEWEB-0573","OBJECT_ID":"2023-004N","EPOCH":"2026-03-09T20:49:45.661440","MEAN_MOTION":13.18686944,"ECCENTRICITY":0.00025441,"INCLINATION":87.9239,"RA_OF_ASC_NODE":355.2031,"ARG_OF_PERICENTER":69.744,"MEAN_ANOMALY":290.3965,"EPHEMERIS_TYPE":0,"CLASSIFICATION_TYPE":"U","NORAD_CAT_ID":55152,"ELEMENT_SET_NO":999,"REV_AT_EPOCH":15660,"BSTAR":0.00013051857,"MEAN_MOTION_DOT":6.4e-7,"MEAN_MOTION_DDOT":0},{"OBJECT_NAME":"METEOR 3-6","OBJECT_ID":"1994-003A","EPOCH":"2026-03-09T19:16:37.191936","MEAN_MOTION":13.17059795,"ECCENTRICITY":0.00162952,"INCLINATION":82.5663,"RA_OF_ASC_NODE":157.4504,"ARG_OF_PERICENTER":96.7518,"MEAN_ANOMALY":263.5459,"EPHEMERIS_TYPE":0,"CLASSIFICATION_TYPE":"U","NORAD_CAT_ID":22969,"ELEMENT_SET_NO":999,"REV_AT_EPOCH":54415,"BSTAR":-0.0003016254,"MEAN_MOTION_DOT":-1.04e-6,"MEAN_MOTION_DDOT":0}]
